     2.100          NAVIGATION                              RINEX VERSION / TYPE
fic2rin                                 02/27/2012 00:11:45 PGM / RUN BY / DATE
                                                            END OF HEADER
16 12  2 26 18  0  0.0 -.225074123591D-03 -.159161572810D-11  .000000000000D+00
     .360000000000D+02  .248437500000D+02  .407802700905D-08 -.291535221317D+01
     .135041773319D-05  .648160814308D-02  .736676156521D-05  .515362156105D+04
     .648000000000D+05 -.484287738800D-07 -.165275617321D+01 -.204890966415D-07
     .979237430450D+00  .250000000000D+03 -.748850502344D-01 -.780889670046D-08
     .408588447920D-09  .100000000000D+01  .167700000000D+04  .000000000000D+00
     .240000000000D+01  .000000000000D+00 -.977888703346D-08  .360000000000D+02
     .576060000000D+05  .400000000000D+01
17 12  2 26 18  0  0.0  .146271195263D-03 -.238742359215D-11  .000000000000D+00
     .106000000000D+03 -.446250000000D+02  .463019286612D-08  .239015367863D+01
    -.225380063057D-05  .720171339344D-02  .576488673687D-05  .515363900375D+04
     .648000000000D+05 -.633299350739D-07 -.611291597057D+00 -.150874257088D-06
     .962612923024D+00  .267968750000D+03 -.233509856049D+01 -.807819363205D-08
    -.942896418278D-10  .100000000000D+01  .167700000000D+04  .000000000000D+00
     .340000000000D+01  .000000000000D+00 -.107102096081D-07  .106000000000D+03
     .576060000000D+05  .400000000000D+01
18 12  2 26 18  0  0.0  .183479394764D-03  .181898940355D-11  .000000000000D+00
     .430000000000D+02  .873750000000D+02  .525807616283D-08 -.242381862596D+01
     .444613397121D-05  .128630601102D-01  .702776014805D-05  .515367580986D+04
     .648000000000D+05  .204890966415D-06  .145920715057D+01 -.931322574615D-07
     .930131479344D+00  .225375000000D+03 -.219530909573D+01 -.830713173967D-08
     .350371737246D-09  .100000000000D+01  .167700000000D+04  .000000000000D+00
     .240000000000D+01  .000000000000D+00 -.107102096081D-07  .430000000000D+02
     .576060000000D+05  .400000000000D+01
20 12  2 26 18  0  0.0  .627092085779D-04  .795807864051D-12  .000000000000D+00
     .730000000000D+02  .803437500000D+02  .532557897460D-08 -.204451098517D+01
     .421516597271D-05  .513528997544D-02  .675022602081D-05  .515376026535D+04
     .648000000000D+05  .763684511185D-07  .140539984889D+01  .204890966415D-07
     .930546280988D+00  .234500000000D+03  .128329976572D+01 -.841427905993D-08
     .266082511976D-09  .100000000000D+01  .167700000000D+04  .000000000000D+00
     .240000000000D+01  .000000000000D+00 -.791624188423D-08  .730000000000D+02
     .576060000000D+05  .400000000000D+01
21 12  2 26 18  0  0.0 -.206958036870D-03 -.250111042988D-11  .000000000000D+00
     .620000000000D+02 -.625000000000D+00  .504378152232D-08 -.136726036034D+01
     .279396772385D-07  .186567042256D-01  .996515154839D-05  .515364727402D+04
     .648000000000D+05  .445172190666D-06  .407507923461D+00  .167638063431D-07
     .931838543821D+00  .164750000000D+03 -.228820181318D+01 -.810569477758D-08
    -.101789954246D-09  .100000000000D+01  .167700000000D+04  .000000000000D+00
     .240000000000D+01  .000000000000D+00 -.111758708954D-07  .620000000000D+02
     .576060000000D+05  .400000000000D+01
22 12  2 26 18  0  0.0  .142978969961D-03  .113686837722D-12  .000000000000D+00
     .320000000000D+02  .831875000000D+02  .536450916763D-08  .301159634574D+01
     .425428152084D-05  .576363597065D-02  .694952905178D-05  .515368945885D+04
     .648000000000D+05  .502914190292D-07  .146277644832D+01 -.987201929092D-07
     .927844125004D+00  .228250000000D+03 -.200313013976D+01 -.839749264642D-08
     .228580949885D-09  .100000000000D+01  .167700000000D+04  .000000000000D+00
     .240000000000D+01  .000000000000D+00 -.167638063431D-07  .320000000000D+02
     .576060000000D+05  .400000000000D+01
23 12  2 26 18  0  0.0  .229388941079D-03 -.341060513165D-11  .000000000000D+00
     .680000000000D+02 -.184375000000D+02  .478412784956D-08  .113317631787D+01
    -.800937414169D-06  .758172932547D-02  .379420816898D-05  .515366783714D+04
     .648000000000D+05  .596046447754D-07  .250907220609D+01  .521540641785D-07
     .961191447951D+00  .303562500000D+03 -.302944091660D+01 -.841642200633D-08
    -.348585948575D-09  .100000000000D+01  .167700000000D+04  .000000000000D+00
     .240000000000D+01  .000000000000D+00 -.200234353542D-07  .680000000000D+02
     .576060000000D+05  .400000000000D+01
25 12  2 26 18  0  0.0  .318787060678D-04  .227373675443D-12  .000000000000D+00
     .790000000000D+02  .155937500000D+02  .430982237854D-08 -.178921348948D+01
     .881031155586D-06  .128557812423D-02  .792928040028D-05  .515375025558D+04
     .648000000000D+05  .372529029846D-08 -.170389085668D+01 -.447034835815D-07
     .967217178261D+00  .231468750000D+03  .612758486959D+00 -.793354474970D-08
     .385016037463D-09  .100000000000D+01  .167700000000D+04  .000000000000D+00
     .240000000000D+01  .000000000000D+00  .558793544769D-08  .790000000000D+02
     .576060000000D+05  .400000000000D+01
26 12  2 26 18  0  0.0 -.688126310706D-04 -.602540239925D-10  .000000000000D+00
     .820000000000D+02 -.255937500000D+02  .440268338944D-08  .998600827733D+00
    -.133365392685D-05  .208401104901D-01  .503100454807D-05  .515365263367D+04
     .648000000000D+05 -.350177288055D-06  .257984570166D+01  .540167093277D-07
     .984333392934D+00  .301875000000D+03  .117409512987D+01 -.843892294359D-08
    -.416088760338D-09  .100000000000D+01  .167700000000D+04  .000000000000D+00
     .485000000000D+01  .000000000000D+00 -.605359673500D-08  .820000000000D+02
     .576060000000D+05  .400000000000D+01
27 12  2 26 18  0  0.0  .360877253115D-03  .397903932026D-11  .000000000000D+00
     .122000000000D+03 -.630312500000D+02  .383123101472D-08  .196222611786D+01
    -.317953526974D-05  .219233743846D-01  .882148742676D-05  .515377454948D+04
     .648000000000D+05  .348314642906D-06 -.277977048702D+01  .633299350739D-07
     .982199053973D+00  .211312500000D+03 -.111997344417D+01 -.745781064775D-08
    -.386444668400D-09  .100000000000D+01  .167700000000D+04  .000000000000D+00
     .485000000000D+01  .000000000000D+00 -.419095158577D-08  .122000000000D+03
     .576060000000D+05  .400000000000D+01
28 12  2 26 18  0  0.0  .116740819067D-03  .386535248253D-11  .000000000000D+00
     .130000000000D+02  .286875000000D+02  .401052419729D-08  .296687252039D+01
     .137649476528D-05  .178760294802D-01  .728853046894D-05  .515370836258D+04
     .648000000000D+05  .132247805595D-06 -.164589741346D+01 -.931322574615D-07
     .977581461312D+00  .244500000000D+03 -.183799949455D+01 -.755102881637D-08
     .409302763389D-09  .100000000000D+01  .167700000000D+04  .000000000000D+00
     .240000000000D+01  .000000000000D+00 -.107102096081D-07  .130000000000D+02
     .576060000000D+05  .400000000000D+01
29 12  2 26 18  0  0.0  .288406386971D-03  .363797880709D-11  .000000000000D+00
     .800000000000D+02 -.370312500000D+02  .470555314803D-08 -.110919060709D+01
    -.187195837498D-05  .227330415510D-02  .578351318836D-05  .515362055016D+04
     .648000000000D+05 -.298023223877D-07 -.602767552305D+00  .428408384323D-07
     .963133445368D+00  .269562500000D+03 -.118749639428D+01 -.818141221723D-08
    -.621454457501D-10  .100000000000D+01  .167700000000D+04  .000000000000D+00
     .240000000000D+01  .000000000000D+00 -.931322574615D-08  .800000000000D+02
     .576060000000D+05  .400000000000D+01
31 12  2 26 18  0  0.0  .212884973735D-03  .454747350886D-11  .000000000000D+00
     .660000000000D+02 -.454375000000D+02  .390016245742D-08 -.457634093154D+00
    -.244379043579D-05  .800354860257D-02  .928714871407D-05  .515359821701D+04
     .648000000000D+05 -.128522515297D-06 -.272424907838D+01 -.128522515297D-06
     .980998562916D+00  .214250000000D+03 -.895558342228D+00 -.782461164077D-08
    -.105718689322D-09  .100000000000D+01  .167700000000D+04  .000000000000D+00
     .240000000000D+01  .000000000000D+00 -.130385160446D-07  .660000000000D+02
     .576060000000D+05  .400000000000D+01
32 12  2 26 18  0  0.0 -.412850640714D-03 -.511590769747D-11  .000000000000D+00
     .790000000000D+02  .694062500000D+02  .501878048092D-08  .169478796158D+00
     .359117984772D-05  .118586220779D-01  .613741576672D-05  .515373530769D+04
     .648000000000D+05  .465661287308D-07  .153594608813D+01 -.152736902237D-06
     .952033313060D+00  .260250000000D+03 -.611133923747D+00 -.852106922245D-08
     .243224416988D-09  .100000000000D+01  .167700000000D+04  .000000000000D+00
     .240000000000D+01  .000000000000D+00 -.279396772385D-08  .790000000000D+02
     .576060000000D+05  .400000000000D+01
27 12  2 26 17 59 44.0  .360883306712D-03  .397903932026D-11  .000000000000D+00
     .000000000000D+00 -.630312500000D+02  .383158817246D-08  .195989244168D+01
    -.317767262459D-05  .219233577373D-01  .881962478161D-05  .515377457237D+04
     .647840000000D+05  .348314642906D-06 -.277977036560D+01  .633299350739D-07
     .982199068602D+00  .211312500000D+03 -.111997348367D+01 -.745781064775D-08
    -.386801826134D-09  .100000000000D+01  .167700000000D+04  .000000000000D+00
     .240000000000D+01  .000000000000D+00 -.419095158577D-08  .000000000000D+00
     .592260000000D+05  .400000000000D+01
22 12  2 26 17 59 44.0  .142980832607D-03  .227373675443D-12  .000000000000D+00
     .520000000000D+02  .831875000000D+02  .536450916763D-08  .300926235650D+01
     .425428152084D-05  .576363154687D-02  .694952905178D-05  .515368946266D+04
     .647840000000D+05  .502914190292D-07  .146277658876D+01 -.987201929092D-07
     .927844123541D+00  .228250000000D+03 -.200312990716D+01 -.839749264642D-08
     .228580949885D-09  .100000000000D+01  .167700000000D+04  .000000000000D+00
     .240000000000D+01  .000000000000D+00 -.167638063431D-07  .520000000000D+02
     .612060000000D+05  .400000000000D+01
